CCSDS_OMM_VERS = 2.0
CREATION_DATE  = 
ORIGINATOR     = 

OBJECT_NAME    = STARLINK-36551
OBJECT_ID      = 2026-012A
CENTER_NAME    = EARTH
REF_FRAME      = TEME
TIME_SYSTEM    = UTC
MEAN_ELEMENT_THEORY = SGP/SGP4

EPOCH          = 2026-02-17T14:00:01.999872
MEAN_MOTION    = 15.27555245
ECCENTRICITY   = .00011459
INCLINATION    = 42.9998
RA_OF_ASC_NODE = 68.3293
ARG_OF_PERICENTER = 275.2764
MEAN_ANOMALY   = 45.7984

EPHEMERIS_TYPE = 0
CLASSIFICATION_TYPE = U
NORAD_CAT_ID   = 67493
ELEMENT_SET_NO = 999
REV_AT_EPOCH   = 584
BSTAR          = .13522176E-2
MEAN_MOTION_DOT = .37107E-3
MEAN_MOTION_DDOT = 0

CCSDS_OMM_VERS = 2.0
CREATION_DATE  = 
ORIGINATOR     = 

OBJECT_NAME    = STARLINK-36396
OBJECT_ID      = 2026-012B
CENTER_NAME    = EARTH
REF_FRAME      = TEME
TIME_SYSTEM    = UTC
MEAN_ELEMENT_THEORY = SGP/SGP4

EPOCH          = 2026-02-17T14:00:01.999872
MEAN_MOTION    = 15.45595108
ECCENTRICITY   = .00009278
INCLINATION    = 43.0010
RA_OF_ASC_NODE = 68.4430
ARG_OF_PERICENTER = 297.9972
MEAN_ANOMALY   = 343.4824

EPHEMERIS_TYPE = 0
CLASSIFICATION_TYPE = U
NORAD_CAT_ID   = 67494
ELEMENT_SET_NO = 999
REV_AT_EPOCH   = 584
BSTAR          = -.38905389E-1
MEAN_MOTION_DOT = -.1708735E-1
MEAN_MOTION_DDOT = 0

CCSDS_OMM_VERS = 2.0
CREATION_DATE  = 
ORIGINATOR     = 

OBJECT_NAME    = STARLINK-36550
OBJECT_ID      = 2026-012C
CENTER_NAME    = EARTH
REF_FRAME      = TEME
TIME_SYSTEM    = UTC
MEAN_ELEMENT_THEORY = SGP/SGP4

EPOCH          = 2026-02-17T14:00:01.999872
MEAN_MOTION    = 15.31889372
ECCENTRICITY   = .00011922
INCLINATION    = 43.0005
RA_OF_ASC_NODE = 68.2857
ARG_OF_PERICENTER = 306.2107
MEAN_ANOMALY   = 37.4570

EPHEMERIS_TYPE = 0
CLASSIFICATION_TYPE = U
NORAD_CAT_ID   = 67495
ELEMENT_SET_NO = 999
REV_AT_EPOCH   = 584
BSTAR          = -.78474234E-1
MEAN_MOTION_DOT = -.2208126E-1
MEAN_MOTION_DDOT = 0

CCSDS_OMM_VERS = 2.0
CREATION_DATE  = 
ORIGINATOR     = 

OBJECT_NAME    = STARLINK-36534
OBJECT_ID      = 2026-012D
CENTER_NAME    = EARTH
REF_FRAME      = TEME
TIME_SYSTEM    = UTC
MEAN_ELEMENT_THEORY = SGP/SGP4

EPOCH          = 2026-02-17T14:00:01.999872
MEAN_MOTION    = 15.27523287
ECCENTRICITY   = .00013291
INCLINATION    = 43.0006
RA_OF_ASC_NODE = 68.1429
ARG_OF_PERICENTER = 267.2600
MEAN_ANOMALY   = 131.6497

EPHEMERIS_TYPE = 0
CLASSIFICATION_TYPE = U
NORAD_CAT_ID   = 67496
ELEMENT_SET_NO = 999
REV_AT_EPOCH   = 578
BSTAR          = .13046818E-2
MEAN_MOTION_DOT = .35752E-3
MEAN_MOTION_DDOT = 0

CCSDS_OMM_VERS = 2.0
CREATION_DATE  = 
ORIGINATOR     = 

OBJECT_NAME    = STARLINK-36555
OBJECT_ID      = 2026-012E
CENTER_NAME    = EARTH
REF_FRAME      = TEME
TIME_SYSTEM    = UTC
MEAN_ELEMENT_THEORY = SGP/SGP4

EPOCH          = 2026-02-17T14:00:01.999872
MEAN_MOTION    = 15.27548918
ECCENTRICITY   = .00009747
INCLINATION    = 42.9998
RA_OF_ASC_NODE = 68.1769
ARG_OF_PERICENTER = 271.5057
MEAN_ANOMALY   = 113.2564

EPHEMERIS_TYPE = 0
CLASSIFICATION_TYPE = U
NORAD_CAT_ID   = 67497
ELEMENT_SET_NO = 999
REV_AT_EPOCH   = 584
BSTAR          = .19734797E-2
MEAN_MOTION_DOT = .54393E-3
MEAN_MOTION_DDOT = 0

CCSDS_OMM_VERS = 2.0
CREATION_DATE  = 
ORIGINATOR     = 

OBJECT_NAME    = STARLINK-36081
OBJECT_ID      = 2026-012F
CENTER_NAME    = EARTH
REF_FRAME      = TEME
TIME_SYSTEM    = UTC
MEAN_ELEMENT_THEORY = SGP/SGP4

EPOCH          = 2026-02-17T14:00:01.999872
MEAN_MOTION    = 15.34940526
ECCENTRICITY   = .00010715
INCLINATION    = 43.0002
RA_OF_ASC_NODE = 68.1661
ARG_OF_PERICENTER = 300.7041
MEAN_ANOMALY   = 90.6878

EPHEMERIS_TYPE = 0
CLASSIFICATION_TYPE = U
NORAD_CAT_ID   = 67498
ELEMENT_SET_NO = 999
REV_AT_EPOCH   = 578
BSTAR          = -.69753168E-1
MEAN_MOTION_DOT = -.2167977E-1
MEAN_MOTION_DDOT = 0

CCSDS_OMM_VERS = 2.0
CREATION_DATE  = 
ORIGINATOR     = 

OBJECT_NAME    = STARLINK-36558
OBJECT_ID      = 2026-012G
CENTER_NAME    = EARTH
REF_FRAME      = TEME
TIME_SYSTEM    = UTC
MEAN_ELEMENT_THEORY = SGP/SGP4

EPOCH          = 2026-02-17T14:00:01.999872
MEAN_MOTION    = 15.35806344
ECCENTRICITY   = .0000933
INCLINATION    = 43.0006
RA_OF_ASC_NODE = 68.1326
ARG_OF_PERICENTER = 299.2836
MEAN_ANOMALY   = 105.9447

EPHEMERIS_TYPE = 0
CLASSIFICATION_TYPE = U
NORAD_CAT_ID   = 67499
ELEMENT_SET_NO = 999
REV_AT_EPOCH   = 584
BSTAR          = -.67878697E-1
MEAN_MOTION_DOT = -.2169354E-1
MEAN_MOTION_DDOT = 0

CCSDS_OMM_VERS = 2.0
CREATION_DATE  = 
ORIGINATOR     = 

OBJECT_NAME    = STARLINK-36557
OBJECT_ID      = 2026-012H
CENTER_NAME    = EARTH
REF_FRAME      = TEME
TIME_SYSTEM    = UTC
MEAN_ELEMENT_THEORY = SGP/SGP4

EPOCH          = 2026-02-17T14:00:01.999872
MEAN_MOTION    = 15.27553438
ECCENTRICITY   = .00013663
INCLINATION    = 42.9996
RA_OF_ASC_NODE = 67.9815
ARG_OF_PERICENTER = 295.2640
MEAN_ANOMALY   = 167.3202

EPHEMERIS_TYPE = 0
CLASSIFICATION_TYPE = U
NORAD_CAT_ID   = 67500
ELEMENT_SET_NO = 999
REV_AT_EPOCH   = 584
BSTAR          = .18844957E-2
MEAN_MOTION_DOT = .51919E-3
MEAN_MOTION_DDOT = 0

CCSDS_OMM_VERS = 2.0
CREATION_DATE  = 
ORIGINATOR     = 

OBJECT_NAME    = STARLINK-36433
OBJECT_ID      = 2026-012J
CENTER_NAME    = EARTH
REF_FRAME      = TEME
TIME_SYSTEM    = UTC
MEAN_ELEMENT_THEORY = SGP/SGP4

EPOCH          = 2026-02-17T14:00:01.999872
MEAN_MOTION    = 15.27544658
ECCENTRICITY   = .00009258
INCLINATION    = 42.9998
RA_OF_ASC_NODE = 67.9285
ARG_OF_PERICENTER = 292.8166
MEAN_ANOMALY   = 190.9817

EPHEMERIS_TYPE = 0
CLASSIFICATION_TYPE = U
NORAD_CAT_ID   = 67501
ELEMENT_SET_NO = 999
REV_AT_EPOCH   = 584
BSTAR          = .18707329E-2
MEAN_MOTION_DOT = .51521E-3
MEAN_MOTION_DDOT = 0

CCSDS_OMM_VERS = 2.0
CREATION_DATE  = 
ORIGINATOR     = 

OBJECT_NAME    = STARLINK-36554
OBJECT_ID      = 2026-012K
CENTER_NAME    = EARTH
REF_FRAME      = TEME
TIME_SYSTEM    = UTC
MEAN_ELEMENT_THEORY = SGP/SGP4

EPOCH          = 2026-02-17T14:00:01.999872
MEAN_MOTION    = 15.34862509
ECCENTRICITY   = .00009507
INCLINATION    = 42.9997
RA_OF_ASC_NODE = 67.9066
ARG_OF_PERICENTER = 263.7672
MEAN_ANOMALY   = 233.3504

EPHEMERIS_TYPE = 0
CLASSIFICATION_TYPE = U
NORAD_CAT_ID   = 67502
ELEMENT_SET_NO = 999
REV_AT_EPOCH   = 578
BSTAR          = -.69912583E-1
MEAN_MOTION_DOT = -.2167469E-1
MEAN_MOTION_DDOT = 0

CCSDS_OMM_VERS = 2.0
CREATION_DATE  = 
ORIGINATOR     = 

OBJECT_NAME    = STARLINK-36552
OBJECT_ID      = 2026-012L
CENTER_NAME    = EARTH
REF_FRAME      = TEME
TIME_SYSTEM    = UTC
MEAN_ELEMENT_THEORY = SGP/SGP4

EPOCH          = 2026-02-17T14:00:01.999872
MEAN_MOTION    = 15.27514905
ECCENTRICITY   = .00018017
INCLINATION    = 42.9999
RA_OF_ASC_NODE = 67.7896
ARG_OF_PERICENTER = 294.6325
MEAN_ANOMALY   = 245.7856

EPHEMERIS_TYPE = 0
CLASSIFICATION_TYPE = U
NORAD_CAT_ID   = 67503
ELEMENT_SET_NO = 999
REV_AT_EPOCH   = 584
BSTAR          = .19302144E-2
MEAN_MOTION_DOT = .53131E-3
MEAN_MOTION_DDOT = 0

CCSDS_OMM_VERS = 2.0
CREATION_DATE  = 
ORIGINATOR     = 

OBJECT_NAME    = STARLINK-36512
OBJECT_ID      = 2026-012M
CENTER_NAME    = EARTH
REF_FRAME      = TEME
TIME_SYSTEM    = UTC
MEAN_ELEMENT_THEORY = SGP/SGP4

EPOCH          = 2026-02-17T14:00:01.999872
MEAN_MOTION    = 15.32217559
ECCENTRICITY   = .00015725
INCLINATION    = 43.0002
RA_OF_ASC_NODE = 67.7218
ARG_OF_PERICENTER = 263.9079
MEAN_ANOMALY   = 305.9103

EPHEMERIS_TYPE = 0
CLASSIFICATION_TYPE = U
NORAD_CAT_ID   = 67504
ELEMENT_SET_NO = 999
REV_AT_EPOCH   = 584
BSTAR          = -.75999848E-1
MEAN_MOTION_DOT = -.2165843E-1
MEAN_MOTION_DDOT = 0

