STARLINK-36551          
1 67493U 26012A   26048.58335648  .00037107  00000+0  13522-2 0  9994
2 67493  42.9998  68.3293 0001145 275.2764  45.7984 15.27555245  5842
STARLINK-36396          
1 67494U 26012B   26048.58335648 -.01708735  00000+0 -38905-1 0  9991
2 67494  43.0010  68.4430 0000927 297.9972 343.4824 15.45595108  5846
STARLINK-36550          
1 67495U 26012C   26048.58335648 -.02208126  00000+0 -78474-1 0  9997
2 67495  43.0005  68.2857 0001192 306.2107  37.4570 15.31889372  5843
STARLINK-36534          
1 67496U 26012D   26048.58335648  .00035752  00000+0  13047-2 0  9993
2 67496  43.0006  68.1429 0001329 267.2600 131.6497 15.27523287  5788
STARLINK-36555          
1 67497U 26012E   26048.58335648  .00054393  00000+0  19735-2 0  9996
2 67497  42.9998  68.1769 0000974 271.5057 113.2564 15.27548918  5849
STARLINK-36081          
1 67498U 26012F   26048.58335648 -.02167977  00000+0 -69753-1 0  9998
2 67498  43.0002  68.1661 0001071 300.7041  90.6878 15.34940526  5784
STARLINK-36558          
1 67499U 26012G   26048.58335648 -.02169354  00000+0 -67879-1 0  9997
2 67499  43.0006  68.1326 0000933 299.2836 105.9447 15.35806344  5846
STARLINK-36557          
1 67500U 26012H   26048.58335648  .00051919  00000+0  18845-2 0  9993
2 67500  42.9996  67.9815 0001366 295.2640 167.3202 15.27553438  5840
STARLINK-36433          
1 67501U 26012J   26048.58335648  .00051521  00000+0  18707-2 0  9990
2 67501  42.9998  67.9285 0000925 292.8166 190.9817 15.27544658  5848
STARLINK-36554          
1 67502U 26012K   26048.58335648 -.02167469  00000+0 -69913-1 0  9998
2 67502  42.9997  67.9066 0000950 263.7672 233.3504 15.34862509  5786
STARLINK-36552          
1 67503U 26012L   26048.58335648  .00053131  00000+0  19302-2 0  9993
2 67503  42.9999  67.7896 0001801 294.6325 245.7856 15.27514905  5842
STARLINK-36512          
1 67504U 26012M   26048.58335648 -.02165843  00000+0 -76000-1 0  9999
2 67504  43.0002  67.7218 0001572 263.9079 305.9103 15.32217559  5843
